NORAD_CAT_ID,OBJECT_NAME,OBJECT_TYPE,EPOCH,MEAN_MOTION,ECCENTRICITY,INCLINATION,RA_OF_ASC_NODE,ARG_OF_PERICENTER,MEAN_ANOMALY,BSTAR,MEAN_MOTION_DOT,MEAN_MOTION_DDOT,TLE_LINE0,TLE_LINE1,TLE_LINE2,SEMIMAJOR_AXIS,PERIOD,APOGEE,PERIGEE,DECAYED
55920.0,STARLINK-5862,PAYLOAD,2023-07-18 06:00:00,15.21181278,0.00031,69.9981,199.4571,274.4341,202.4743,-0.04291,-0.00891084,0.0,0 STARLINK-5862,1 55920U 23037G   23199.25001157 -.00891084  00000-0 -42910-1 0  9990,2 55920  69.9981 199.4571 0003100 274.4341 202.4743 15.21181278 19682,6880.413,94.663,504.411,500.145,0.0
55920.0,STARLINK-5862,PAYLOAD,2023-07-18 22:00:00,15.19903878,0.0002989,69.9982,197.7174,268.8166,256.3319,-0.045763,-0.00913689,0.0,0 STARLINK-5862,1 55920U 23037G   23199.91667824 -.00913689  00000-0 -45763-1 0  9997,2 55920  69.9982 197.7174 0002989 268.8166 256.3319 15.19903878 19782,6884.268,94.743,508.191,504.075,0.0
55920.0,STARLINK-5862,PAYLOAD,2023-07-19 14:00:01,15.18619448,0.0002971,69.9982,195.9812,273.7911,296.4852,-0.050429,-0.00965714,0.0,0 STARLINK-5862,1 55920U 23037G   23200.58334491 -.00965714  00000-0 -50429-1 0  9995,2 55920  69.9982 195.9812 0002971 273.7911 296.4852 15.18619448 19890,6888.149,94.823,512.061,507.968,0.0
55920.0,STARLINK-5862,PAYLOAD,2023-07-20 06:00:00,15.17261251,0.000304,69.9987,194.2485,272.882,339.4143,-0.047376,-0.00878779,0.0,0 STARLINK-5862,1 55920U 23037G   23201.25001157 -.00878779  00000-0 -47376-1 0  9991,2 55920  69.9987 194.2485 0003040 272.8820 339.4143 15.17261251 19996,6892.259,94.908,516.219,512.029,0.0
55920.0,STARLINK-5862,PAYLOAD,2023-07-20 22:00:00,15.15998325,0.0003123,69.999,192.5194,267.239,23.9064,-0.052056,-0.00927489,0.0,0 STARLINK-5862,1 55920U 23037G   23201.91667824 -.00927489  00000-0 -52056-1 0  9997,2 55920  69.9990 192.5194 0003123 267.2390  23.9064 15.15998325 20097,6896.086,94.987,520.105,515.798,0.0
55920.0,STARLINK-5862,PAYLOAD,2023-07-21 22:00:00,15.14043751,0.0003181,69.9994,189.9321,268.6152,74.9687,-0.055305,-0.00931846,0.0,0 STARLINK-5862,1 55920U 23037G   23202.91667824 -.00931846  00000-0 -55305-1 0  9990,2 55920  69.9994 189.9321 0003181 268.6152  74.9687 15.14043751 20245,6902.02,95.11,526.081,521.69,0.0
55920.0,STARLINK-5862,PAYLOAD,2023-07-24 14:00:01,15.08822863,0.0002998,69.9994,183.0709,276.7667,172.24,-0.065212,-0.00948683,0.0,0 STARLINK-5862,1 55920U 23037G   23205.58334491 -.00948683  00000-0 -65212-1 0  9992,2 55920  69.9994 183.0709 0002998 276.7667 172.2400 15.08822863  2298,6917.933,95.439,541.872,537.724,0.0
55920.0,STARLINK-5862,PAYLOAD,2023-07-25 14:00:01,15.06863997,0.0002941,69.9992,180.5123,272.5058,203.1882,-0.068537,-0.00945353,0.0,0 STARLINK-5862,1 55920U 23037G   23206.58335648 -.00945353  00000-0 -68537-1 0  9992,2 55920  69.9992 180.5123 0002941 272.5058 203.1882 15.06863997  2440,6923.927,95.563,547.828,543.756,0.0
55920.0,STARLINK-5862,PAYLOAD,2023-07-26 14:00:01,15.04902089,0.0002906,69.9988,177.9613,271.1235,224.0923,-0.071632,-0.00937606,0.0,0 STARLINK-5862,1 55920U 23037G   23207.58334491 -.00937606  00000-0 -71632-1 0  9990,2 55920  69.9988 177.9613 0002906 271.1235 224.0923 15.04902089  2602,6929.943,95.687,553.822,549.794,0.0
55920.0,STARLINK-5862,PAYLOAD,2023-07-26 22:00:01,15.04273545,0.0002969,69.9991,177.1126,265.6357,234.5929,-0.074482,-0.00968142,0.0,0 STARLINK-5862,1 55920U 23037G   23207.91668981 -.00968142  00000-0 -74482-1 0  9996,2 55920  69.9991 177.1126 0002969 265.6357 234.5929 15.04273545 20991,6931.874,95.727,555.797,551.68,0.0
55920.0,STARLINK-5862,PAYLOAD,2023-07-27 14:00:01,15.02942022,0.0002883,69.9985,175.4178,270.2648,237.4943,-0.075037,-0.00932382,0.0,0 STARLINK-5862,1 55920U 23037G   23208.58334491 -.00932382  00000-0 -75037-1 0  9990,2 55920  69.9985 175.4178 0002883 270.2648 237.4943 15.02942022 21093,6935.967,95.812,559.832,555.832,0.0
55920.0,STARLINK-5862,PAYLOAD,2023-07-27 22:00:00,15.02318656,0.0002968,69.9988,174.5717,265.0088,245.3521,-0.078789,-0.00971841,0.0,0 STARLINK-5862,1 55920U 23037G   23208.91667824 -.00971841  00000-0 -78789-1 0  9996,2 55920  69.9988 174.5717 0002968 265.0088 245.3521 15.02318656  2807,6937.886,95.852,561.81,557.691,0.0
55920.0,STARLINK-5862,PAYLOAD,2023-07-28 14:00:01,15.00981541,0.00029,69.9984,172.882,269.2929,243.9695,-0.078507,-0.00937105,0.0,0 STARLINK-5862,1 55920U 23037G   23209.58334491 -.00937105  00000-0 -78507-1 0  9994,2 55920  69.9984 172.8820 0002900 269.2929 243.9695 15.00981541  2909,6942.005,95.937,565.883,561.857,0.0
55920.0,STARLINK-5862,PAYLOAD,2023-07-28 22:00:00,15.00363264,0.0002935,69.9987,172.0385,264.3007,249.2146,-0.08324,-0.00974853,0.0,0 STARLINK-5862,1 55920U 23037G   23209.91667824 -.00974853  00000-0 -83240-1 0  9991,2 55920  69.9987 172.0385 0002935 264.3007 249.2146 15.00363264 21302,6943.912,95.977,567.815,563.739,0.0
55920.0,STARLINK-5862,PAYLOAD,2023-07-29 06:00:00,14.99480953,0.0002982,69.9988,171.1957,270.8044,242.2472,-0.026092,-0.00307225,0.0,0 STARLINK-5862,1 55920U 23037G   23210.25001157 -.00307225  00000-0 -26092-1 0  9996,2 55920  69.9988 171.1957 0002982 270.8044 242.2472 14.99480953 21355,6946.636,96.033,570.572,566.429,0.0
55920.0,STARLINK-5862,PAYLOAD,2023-07-29 14:00:01,14.99275501,0.000283,69.9988,170.3537,268.7373,243.0971,-0.00033765,-4.22e-05,0.0,0 STARLINK-5862,1 55920U 23037G   23210.58335648 -.00004220  00000-0 -33765-3 0  9993,2 55920  69.9988 170.3537 0002830 268.7373 243.0971 14.99275501 21403,6947.271,96.046,571.102,567.169,0.0
55920.0,STARLINK-5862,PAYLOAD,2023-07-30 14:00:01,14.99300569,0.0002878,70.0002,167.8287,265.6788,241.9449,-0.0015872,-0.00019461,0.0,0 STARLINK-5862,1 55920U 23037G   23211.58334491 -.00019461  00000-0 -15872-2 0  9990,2 55920  70.0002 167.8287 0002878 265.6788 241.9449 14.99300569 21549,6947.193,96.045,571.058,567.059,0.0
55920.0,STARLINK-5862,PAYLOAD,2023-07-31 06:00:00,14.99292999,0.000288,70.0006,166.1455,268.6478,236.2773,0.0034624,0.00042521,0.0,0 STARLINK-5862,1 55920U 23037G   23212.25001157  .00042521  00000-0  34624-2 0  9992,2 55920  70.0006 166.1455 0002880 268.6478 236.2773 14.99292999 21649,6947.216,96.045,571.082,567.081,0.0
55920.0,STARLINK-5862,PAYLOAD,2023-07-31 22:00:00,14.99347142,0.0002925,70.0012,164.4622,262.1061,240.1418,-0.00054561,-6.772e-05,0.0,0 STARLINK-5862,1 55920U 23037G   23212.91667824 -.00006772  00000-0 -54561-3 0  9997,2 55920  70.0012 164.4622 0002925 262.1061 240.1418 14.99347142 21742,6947.049,96.042,570.946,566.882,0.0
55920.0,STARLINK-5862,PAYLOAD,2023-08-01 22:00:00,14.99315754,0.000301,70.0015,161.9374,264.9448,233.3016,-0.0012022,-0.00014779,0.0,0 STARLINK-5862,1 55920U 23037G   23213.91667824 -.00014779  00000-0 -12022-2 0  9999,2 55920  70.0015 161.9374 0003010 264.9448 233.3016 14.99315754 21894,6947.146,96.044,571.102,566.92,0.0
55920.0,STARLINK-5862,PAYLOAD,2023-08-03 02:12:26,14.99316088,0.0002571,70.0002,158.9702,264.6959,95.3907,-8.6915e-05,-1.158e-05,0.0,0 STARLINK-5862,1 55920U 23037G   23215.09196831 -.00001158  00000-0 -86915-4 0  9996,2 55920  70.0002 158.9702 0002571 264.6959  95.3907 14.99316088 22073,6947.145,96.044,570.796,567.224,0.0
55920.0,STARLINK-5862,PAYLOAD,2023-08-04 02:13:32,14.99290341,0.0002617,70.0,156.4433,266.9572,93.1288,-7.1876e-05,-9.73e-06,0.0,0 STARLINK-5862,1 55920U 23037G   23216.09273384 -.00000973  00000-0 -71876-4 0  9990,2 55920  70.0000 156.4433 0002617 266.9572  93.1288 14.99290341 22220,6947.225,96.045,570.908,567.272,0.0
55920.0,STARLINK-5862,PAYLOAD,2023-08-05 02:14:36,14.9930651,0.0002744,69.9992,153.9149,269.7674,90.3171,1.0554e-05,3.5e-07,0.0,0 STARLINK-5862,1 55920U 23037G   23217.09347374  .00000035  00000-0  10554-4 0  9995,2 55920  69.9992 153.9149 0002744 269.7674  90.3171 14.99306510 22370,6947.175,96.044,570.946,567.133,0.0
55920.0,STARLINK-5862,PAYLOAD,2023-08-05 05:26:44,14.99312417,0.000257,70.0003,153.5808,260.9235,99.1633,5.6612e-05,5.99e-06,0.0,0 STARLINK-5862,1 55920U 23037G   23217.22690138  .00000599  00000-0  56612-4 0  9999,2 55920  70.0003 153.5808 0002570 260.9235  99.1633 14.99312417 22392,6947.157,96.044,570.807,567.236,0.0
55920.0,STARLINK-5862,PAYLOAD,2023-08-06 03:51:44,14.99303082,0.000256,70.0005,151.2229,262.5671,97.5197,0.00016066,1.873e-05,0.0,0 STARLINK-5862,1 55920U 23037G   23218.16093669  .00001873  00000-0  16066-3 0  9993,2 55920  70.0005 151.2229 0002560 262.5671  97.5197 14.99303082 22538,6947.185,96.045,570.829,567.272,0.0
55920.0,STARLINK-5862,PAYLOAD,2023-08-06 13:28:11,14.99296635,0.0002474,70.0005,150.2082,271.8782,88.2094,1.0157e-05,3e-07,0.0,0 STARLINK-5862,1 55920U 23037G   23218.56124597  .00000030  00000-0  10157-4 0  9992,2 55920  70.0005 150.2082 0002474 271.8782  88.2094 14.99296635 22598,6947.205,96.045,570.789,567.352,0.0
55920.0,STARLINK-5862,PAYLOAD,2023-08-07 02:16:47,14.99293275,0.0002555,70.0,148.8622,267.3137,92.773,-0.00021019,-2.664e-05,0.0,0 STARLINK-5862,1 55920U 23037G   23219.09498938 -.00002664  00000-0 -21019-3 0  9999,2 55920  70.0000 148.8622 0002555 267.3137  92.7730 14.99293275 22673,6947.216,96.045,570.856,567.306,0.0
55920.0,STARLINK-5862,PAYLOAD,2023-08-08 02:17:51,14.9930559,0.0002808,69.9996,146.3361,266.9534,93.1304,-1.7351e-05,-3.06e-06,0.0,0 STARLINK-5862,1 55920U 23037G   23220.09572945 -.00000306  00000-0 -17351-4 0  9998,2 55920  69.9996 146.3361 0002808 266.9534  93.1304 14.99305590 22827,6947.178,96.044,570.993,567.092,0.0
55920.0,STARLINK-5862,PAYLOAD,2023-08-09 11:55:21,14.99310199,0.0002614,70.0003,142.798,272.1672,87.9188,4.787e-06,-3.5e-07,0.0,0 STARLINK-5862,1 55920U 23037G   23221.49677705 -.00000035  00000-0  47870-5 0  9991,2 55920  70.0003 142.7980 0002614 272.1672  87.9188 14.99310199 23039,6947.163,96.044,570.844,567.212,0.0
55920.0,STARLINK-5862,PAYLOAD,2023-08-09 23:07:52,14.99299014,0.0002457,70.0005,141.6189,266.2749,93.813,-4.8579e-05,-6.88e-06,0.0,0 STARLINK-5862,1 55920U 23037G   23221.96380337 -.00000688  00000-0 -48579-4 0  9996,2 55920  70.0005 141.6189 0002457 266.2749  93.8130 14.99299014 23107,6947.198,96.045,570.77,567.356,0.0
